[{"OBJECT_NAME":"STARLINK-34504","OBJECT_ID":"2025-137G","EPOCH":"2026-03-09T23:27:44.697024","MEAN_MOTION":15.30210515,"ECCENTRICITY":8.455e-5,"INCLINATION":53.1584,"RA_OF_ASC_NODE":334.2838,"ARG_OF_PERICENTER":119.8087,"MEAN_ANOMALY":240.2998,"EPHEMERIS_TYPE":0,"CLASSIFICATION_TYPE":"U","NORAD_CAT_ID":64600,"ELEMENT_SET_NO":999,"REV_AT_EPOCH":4077,"BSTAR":0.00082856107,"MEAN_MOTION_DOT":0.00024269,"MEAN_MOTION_DDOT":0},{"OBJECT_NAME":"COSMOS 2251 DEB","OBJECT_ID":"1993-036BPR","EPOCH":"2026-02-24T07:57:21.236256","MEAN_MOTION":15.23776337,"ECCENTRICITY":0.00166824,"INCLINATION":73.9787,"RA_OF_ASC_NODE":76.2838,"ARG_OF_PERICENTER":284.1156,"MEAN_ANOMALY":75.8189,"EPHEMERIS_TYPE":0,"CLASSIFICATION_TYPE":"U","NORAD_CAT_ID":37966,"ELEMENT_SET_NO":999,"REV_AT_EPOCH":86459,"BSTAR":0.0031189174,"MEAN_MOTION_DOT":0.00076101,"MEAN_MOTION_DDOT":0}]
